{"type": "FeatureCollection", "features": [ {"type": "Feature", "properties": {"norad_id": 30061, "name": "FENGYUN 1C DEB", "group": "fengyun-1c-debris", "lat": 63.71087746607019, "lon": 85.03932005609848, "alt_km": 1335.0530310155837, "timestamp": "2025-12-24T09:46:31.277582+00:00", "meta": {"OBJECT_NAME": "FENGYUN 1C DEB", "OBJECT_ID": "1999-025PN", "EPOCH": "2025-12-23T21:34:47.078400", "MEAN_MOTION": 13.46513575, "ECCENTRICITY": 0.0373354, "INCLINATION": 101.8753, "RA_OF_ASC_NODE": 109.6469, "ARG_OF_PERICENTER": 225.2941, "MEAN_ANOMALY": 260.7059, "EPHEMERIS_TYPE": 0, "CLASSIFICATION_TYPE": "U", "NORAD_CAT_ID": 30061, "ELEMENT_SET_NO": 999, "REV_AT_EPOCH": 92249, "BSTAR": 0.0037234, "MEAN_MOTION_DOT": 3.367e-05, "MEAN_MOTION_DDOT": 0}, "tle": {"line1": "1 30061U 99025PN  25357.89915600  .00003367  00000+0  37234-2 0  9994", "line2": "2 30061 101.8753 109.6469 0373354 225.2941 260.7059 13.46513575922497"}}, "geometry": {"type": "Point", "coordinates": [85.03932005609848, 63.71087746607019]}}, {"type": "Feature", "properties": {"norad_id": 30062, "name": "FENGYUN 1C DEB", "group": "fengyun-1c-debris", "lat": 33.87952861593287, "lon": 1.3019015726292933, "alt_km": 833.3041957014684, "timestamp": "2025-12-24T09:46:31.277593+00:00", "meta": {"OBJECT_NAME": "FENGYUN 1C DEB", "OBJECT_ID": "1999-025PP", "EPOCH": "2025-12-23T23:39:42.249024", "MEAN_MOTION": 14.07126565, "ECCENTRICITY": 0.0049063, "INCLINATION": 98.7805, "RA_OF_ASC_NODE": 6.8494, "ARG_OF_PERICENTER": 16.8736, "MEAN_ANOMALY": 43.8894, "EPHEMERIS_TYPE": 0, "CLASSIFICATION_TYPE": "U", "NORAD_CAT_ID": 30062, "ELEMENT_SET_NO": 999, "REV_AT_EPOCH": 97066, "BSTAR": 0.00039297, "MEAN_MOTION_DOT": 6.22e-06, "MEAN_MOTION_DDOT": 0}, "tle": {"line1": "1 30062U 99025PP  25357.98590566  .00000622  00000+0  39297-3 0  9998", "line2": "2 30062  98.7805   6.8494 0049063  16.8736  43.8894 14.07126565970665"}}, "geometry": {"type": "Point", "coordinates": [1.3019015726292933, 33.87952861593287]}}, {"type": "Feature", "properties": {"norad_id": 30063, "name": "FENGYUN 1C DEB", "group": "fengyun-1c-debris", "lat": 41.82768527147033, "lon": -31.00264202262448, "alt_km": 824.3753513051515, "timestamp": "2025-12-24T09:46:31.277603+00:00", "meta": {"OBJECT_NAME": "FENGYUN 1C DEB", "OBJECT_ID": "1999-025PQ", "EPOCH": "2025-12-23T18:52:18.080832", "MEAN_MOTION": 14.15615102, "ECCENTRICITY": 0.00333263, "INCLINATION": 98.5226, "RA_OF_ASC_NODE": 336.116, "ARG_OF_PERICENTER": 103.3682, "MEAN_ANOMALY": 16.5507, "EPHEMERIS_TYPE": 0, "CLASSIFICATION_TYPE": "U", "NORAD_CAT_ID": 30063, "ELEMENT_SET_NO": 999, "REV_AT_EPOCH": 97821, "BSTAR": 7.7746709e-05, "MEAN_MOTION_DOT": 1.12e-06, "MEAN_MOTION_DDOT": 0}, "tle": {"line1": "1 30063U 99025PQ  25357.78632038  .00000112  00000+0  77747-4 0  9995", "line2": "2 30063  98.5226 336.1160 0033326 103.3682  16.5507 14.15615102978213"}}, "geometry": {"type": "Point", "coordinates": [-31.00264202262448, 41.82768527147033]}}, {"type": "Feature", "properties": {"norad_id": 30064, "name": "FENGYUN 1C DEB", "group": "fengyun-1c-debris", "lat": 66.28647545222215, "lon": -150.59147561175456, "alt_km": 798.0429364174533, "timestamp": "2025-12-24T09:46:31.277614+00:00", "meta": {"OBJECT_NAME": "FENGYUN 1C DEB", "OBJECT_ID": "1999-025PR", "EPOCH": "2025-12-24T01:04:13.708704", "MEAN_MOTION": 14.14276918, "ECCENTRICITY": 0.0066677, "INCLINATION": 98.6613, "RA_OF_ASC_NODE": 8.752, "ARG_OF_PERICENTER": 79.5911, "MEAN_ANOMALY": 346.4764, "EPHEMERIS_TYPE": 0, "CLASSIFICATION_TYPE": "U", "NORAD_CAT_ID": 30064, "ELEMENT_SET_NO": 999, "REV_AT_EPOCH": 97665, "BSTAR": 0.0001569, "MEAN_MOTION_DOT": 2.64e-06, "MEAN_MOTION_DDOT": 0}, "tle": {"line1": "1 30064U 99025PR  25358.04460311  .00000264  00000+0  15690-3 0  9995", "line2": "2 30064  98.6613   8.7520 0066677  79.5911 346.4764 14.14276918976654"}}, "geometry": {"type": "Point", "coordinates": [-150.59147561175456, 66.28647545222215]}}, {"type": "Feature", "properties": {"norad_id": 30065, "name": "FENGYUN 1C DEB", "group": "fengyun-1c-debris", "lat": 0.03394554118398427, "lon": -29.595273470184996, "alt_km": 846.2726522691491, "timestamp": "2025-12-24T09:46:31.277624+00:00", "meta": {"OBJECT_NAME": "FENGYUN 1C DEB", "OBJECT_ID": "1999-025PS", "EPOCH": "2025-12-23T11:16:02.379936", "MEAN_MOTION": 13.86920283, "ECCENTRICITY": 0.01312161, "INCLINATION": 98.6856, "RA_OF_ASC_NODE": 329.5385, "ARG_OF_PERICENTER": 2.4191, "MEAN_ANOMALY": 357.7574, "EPHEMERIS_TYPE": 0, "CLASSIFICATION_TYPE": "U", "NORAD_CAT_ID": 30065, "ELEMENT_SET_NO": 999, "REV_AT_EPOCH": 95820, "BSTAR": 0.00016321993, "MEAN_MOTION_DOT": 1.64e-06, "MEAN_MOTION_DDOT": 0}, "tle": {"line1": "1 30065U 99025PS  25357.46947199  .00000164  00000+0  16322-3 0  9997", "line2": "2 30065  98.6856 329.5385 0131216   2.4191 357.7574 13.86920283958208"}}, "geometry": {"type": "Point", "coordinates": [-29.595273470184996, 0.03394554118398427]}}, {"type": "Feature", "properties": {"norad_id": 30066, "name": "FENGYUN 1C DEB", "group": "fengyun-1c-debris", "lat": 40.77042921153021, "lon": 176.0727516127103, "alt_km": 823.1937694258277, "timestamp": "2025-12-24T09:46:31.277634+00:00", "meta": {"OBJECT_NAME": "FENGYUN 1C DEB", "OBJECT_ID": "1999-025PT", "EPOCH": "2025-12-23T23:03:09.519840", "MEAN_MOTION": 14.19116858, "ECCENTRICITY": 0.0116898, "INCLINATION": 98.6352, "RA_OF_ASC_NODE": 348.1081, "ARG_OF_PERICENTER": 229.2589, "MEAN_ANOMALY": 149.429, "EPHEMERIS_TYPE": 0, "CLASSIFICATION_TYPE": "U", "NORAD_CAT_ID": 30066, "ELEMENT_SET_NO": 999, "REV_AT_EPOCH": 97996, "BSTAR": 0.00012941, "MEAN_MOTION_DOT": 2.46e-06, "MEAN_MOTION_DDOT": 0}, "tle": {"line1": "1 30066U 99025PT  25357.96052685  .00000246  00000+0  12941-3 0  9994", "line2": "2 30066  98.6352 348.1081 0116898 229.2589 149.4290 14.19116858979968"}}, "geometry": {"type": "Point", "coordinates": [176.0727516127103, 40.77042921153021]}}, {"type": "Feature", "properties": {"norad_id": 30067, "name": "FENGYUN 1C DEB", "group": "fengyun-1c-debris", "lat": 15.091040538100941, "lon": -117.54350703982952, "alt_km": 655.2412780996883, "timestamp": "2025-12-24T09:46:31.277645+00:00", "meta": {"OBJECT_NAME": "FENGYUN 1C DEB", "OBJECT_ID": "1999-025PU", "EPOCH": "2025-12-24T03:45:53.421120", "MEAN_MOTION": 14.43721847, "ECCENTRICITY": 0.0151266, "INCLINATION": 98.7655, "RA_OF_ASC_NODE": 244.5831, "ARG_OF_PERICENTER": 344.0436, "MEAN_ANOMALY": 169.5524, "EPHEMERIS_TYPE": 0, "CLASSIFICATION_TYPE": "U", "NORAD_CAT_ID": 30067, "ELEMENT_SET_NO": 999, "REV_AT_EPOCH": 99363, "BSTAR": 0.00042012, "MEAN_MOTION_DOT": 1.586e-05, "MEAN_MOTION_DDOT": 0}, "tle": {"line1": "1 30067U 99025PU  25358.15686830  .00001586  00000+0  42012-3 0  9992", "line2": "2 30067  98.7655 244.5831 0151266 344.0436 169.5524 14.43721847993633"}}, "geometry": {"type": "Point", "coordinates": [-117.54350703982952, 15.091040538100941]}}, {"type": "Feature", "properties": {"norad_id": 30068, "name": "FENGYUN 1C DEB", "group": "fengyun-1c-debris", "lat": 7.934519713814106, "lon": -15.303171093563916, "alt_km": 769.1938086836317, "timestamp": "2025-12-24T09:46:31.277655+00:00", "meta": {"OBJECT_NAME": "FENGYUN 1C DEB", "OBJECT_ID": "1999-025PV", "EPOCH": "2025-12-23T21:50:03.792768", "MEAN_MOTION": 14.12057031, "ECCENTRICITY": 0.018945, "INCLINATION": 98.7374, "RA_OF_ASC_NODE": 345.4399, "ARG_OF_PERICENTER": 317.0247, "MEAN_ANOMALY": 41.6256, "EPHEMERIS_TYPE": 0, "CLASSIFICATION_TYPE": "U", "NORAD_CAT_ID": 30068, "ELEMENT_SET_NO": 999, "REV_AT_EPOCH": 97501, "BSTAR": 0.00018303, "MEAN_MOTION_DOT": 3.53e-06, "MEAN_MOTION_DDOT": 0}, "tle": {"line1": "1 30068U 99025PV  25357.90976612  .00000353  00000+0  18303-3 0  9992", "line2": "2 30068  98.7374 345.4399 0189450 317.0247  41.6256 14.12057031975015"}}, "geometry": {"type": "Point", "coordinates": [-15.303171093563916, 7.934519713814106]}}, {"type": "Feature", "properties": {"norad_id": 30069, "name": "FENGYUN 1C DEB", "group": "fengyun-1c-debris", "lat": 16.918756203191506, "lon": 162.61300687392324, "alt_km": 904.3543112939778, "timestamp": "2025-12-24T09:46:31.277665+00:00", "meta": {"OBJECT_NAME": "FENGYUN 1C DEB", "OBJECT_ID": "1999-025PW", "EPOCH": "2025-12-23T21:19:43.871808", "MEAN_MOTION": 14.05234719, "ECCENTRICITY": 0.0049467, "INCLINATION": 98.8024, "RA_OF_ASC_NODE": 339.4082, "ARG_OF_PERICENTER": 22.3199, "MEAN_ANOMALY": 38.0093, "EPHEMERIS_TYPE": 0, "CLASSIFICATION_TYPE": "U", "NORAD_CAT_ID": 30069, "ELEMENT_SET_NO": 999, "REV_AT_EPOCH": 97003, "BSTAR": 0.00036817, "MEAN_MOTION_DOT": 5.59e-06, "MEAN_MOTION_DDOT": 0}, "tle": {"line1": "1 30069U 99025PW  25357.88870222  .00000559  00000+0  36817-3 0  9998", "line2": "2 30069  98.8024 339.4082 0049467  22.3199  38.0093 14.05234719970034"}}, "geometry": {"type": "Point", "coordinates": [162.61300687392324, 16.918756203191506]}}, {"type": "Feature", "properties": {"norad_id": 30070, "name": "FENGYUN 1C DEB", "group": "fengyun-1c-debris", "lat": 32.169784722511, "lon": -117.59592366741253, "alt_km": 1030.160332553779, "timestamp": "2025-12-24T09:46:31.277676+00:00", "meta": {"OBJECT_NAME": "FENGYUN 1C DEB", "OBJECT_ID": "1999-025PX", "EPOCH": "2025-12-24T04:15:43.869312", "MEAN_MOTION": 14.10001554, "ECCENTRICITY": 0.0327941, "INCLINATION": 98.2848, "RA_OF_ASC_NODE": 56.9336, "ARG_OF_PERICENTER": 285.9791, "MEAN_ANOMALY": 138.5631, "EPHEMERIS_TYPE": 0, "CLASSIFICATION_TYPE": "U", "NORAD_CAT_ID": 30070, "ELEMENT_SET_NO": 999, "REV_AT_EPOCH": 96040, "BSTAR": 0.0016367, "MEAN_MOTION_DOT": 4.723e-05, "MEAN_MOTION_DDOT": 0}, "tle": {"line1": "1 30070U 99025PX  25358.17759108  .00004723  00000+0  16367-2 0  9996", "line2": "2 30070  98.2848  56.9336 0327941 285.9791 138.5631 14.10001554960407"}}, "geometry": {"type": "Point", "coordinates": [-117.59592366741253, 32.169784722511]}}]}